{
    "links": {
        "self": "http://www.neowsapp.com/rest/v1/neo/3054334?api_key=iIulBulltgU6a56xZRHN4H3l9WmuAYTsLGpBGhQ2"
    },
    "id": "3054334",
    "neo_reference_id": "3054334",
    "name": "(2000 SB45)",
    "designation": "2000 SB45",
    "nasa_jpl_url": "http://ssd.jpl.nasa.gov/sbdb.cgi?sstr=3054334",
    "absolute_magnitude_h": 24.5,
    "estimated_diameter": {
        "kilometers": {
            "estimated_diameter_min": 0.0334622374,
            "estimated_diameter_max": 0.0748238376
        },
        "meters": {
            "estimated_diameter_min": 33.4622374455,
            "estimated_diameter_max": 74.8238376074
        },
        "miles": {
            "estimated_diameter_min": 0.0207924639,
            "estimated_diameter_max": 0.0464933628
        },
        "feet": {
            "estimated_diameter_min": 109.7842471007,
            "estimated_diameter_max": 245.4850393757
        }
    },
    "is_potentially_hazardous_asteroid": false,
    "close_approach_data": [
        {
            "close_approach_date": "2000-10-02",
            "close_approach_date_full": "2000-Oct-02 16:17",
            "epoch_date_close_approach": 970503420000,
            "relative_velocity": {
                "kilometers_per_second": "8.223620536",
                "kilometers_per_hour": "29605.0339294923",
                "miles_per_hour": "18395.4167769115"
            },
            "miss_distance": {
                "astronomical": "0.0237150723",
                "lunar": "9.2251631247",
                "kilometers": "3547724.302976001",
                "miles": "2204453.6599947738"
            },
            "orbiting_body": "Earth"
        },
        {
            "close_approach_date": "2002-09-06",
            "close_approach_date_full": "2002-Sep-06 14:27",
            "epoch_date_close_approach": 1031322420000,
            "relative_velocity": {
                "kilometers_per_second": "17.9410980318",
                "kilometers_per_hour": "64587.9529144984",
                "miles_per_hour": "40132.4421873448"
            },
            "miss_distance": {
                "astronomical": "0.348971455",
                "lunar": "135.749895995",
                "kilometers": "52205386.35880085",
                "miles": "32438922.87051773"
            },
            "orbiting_body": "Earth"
        }
    ],
    "orbital_data": {
        "orbit_id": "11",
        "orbit_determination_date": "2017-04-06 09:16:47",
        "first_observation_date": "2000-09-27",
        "last_observation_date": "2000-09-29",
        "data_arc_in_days": 2,
        "observations_used": 18,
        "orbit_uncertainty": "8",
        "minimum_orbit_intersection": ".00131586",
        "jupiter_tisserand_invariant": "4.331",
        "epoch_osculation": "2451816.5",
        "eccentricity": ".3984982570663541",
        "semi_major_axis": "1.563855706103128",
        "inclination": "3.667304676140447",
        "ascending_node_longitude": "195.5842639187806",
        "orbital_period": "714.3210452972266",
        "perihelion_distance": ".9406619329177591",
        "perihelion_argument": "216.1869986628643",
        "aphelion_distance": "2.187049479288497",
        "perihelion_time": "2451853.737050893585",
        "mean_anomaly": "341.233454607077",
        "mean_motion": ".5039750716713172",
        "equinox": "J2000",
        "orbit_class": {
            "orbit_class_type": "APO",
            "orbit_class_description": "Near-Earth asteroid orbits which cross the Earth’s orbit similar to that of 1862 Apollo",
            "orbit_class_range": "a (semi-major axis) > 1.0 AU; q (perihelion) < 1.017 AU"
        }
    },
    "is_sentry_object": false
}